GLOBALSTAR M024         
1 25883U 99043A   25273.72695413  .00000000  00000+0  23035-2 0  9991
2 25883  51.9994 142.4875 0000611 307.9737 129.5802 11.10168605126588
GLOBALSTAR M027         
1 25884U 99043B   25273.58099068  .00000013  00000+0  28951-2 0  9996
2 25884  52.0193 223.7845 0021077 160.4058 199.7549 11.04372655152883
GLOBALSTAR M054         
1 25885U 99043C   25273.51591794 -.00000074  00000+0 -73944-4 0  9996
2 25885  52.0168 333.5558 0005104 358.6172 108.3155 11.39220878131050
GLOBALSTAR M053         
1 25886U 99043D   25273.76037697 -.00000038  00000+0  89907-3 0  9995
2 25886  51.9978 285.9230 0003340 264.1600 266.3178 11.27667283131357
GLOBALSTAR M058         
1 25907U 99049A   25273.69202334 -.00000073  00000+0  15144-3 0  9990
2 25907  51.9931 187.4482 0002527 103.0682 257.0435 11.93202940554138
GLOBALSTAR M050         
1 25908U 99049B   25273.75183381 -.00000019  00000+0  77580-3 0  9990
2 25908  51.9983 187.0780 0008395 242.9019 142.7880 12.07458714160943
GLOBALSTAR M033         
1 25909U 99049C   25273.68536876 -.00000138  00000+0 -44663-3 0  9993
2 25909  51.9925  51.8012 0014696 120.6662 239.5636 12.20297592548622
GLOBALSTAR M055         
1 25910U 99049D   25273.45945688 -.00000072  00000+0  19100-3 0  9999
2 25910  52.0026  58.0596 0006768 357.3400   2.7415 12.29432867181234
